{"type": "FeatureCollection", "features": [ {"type": "Feature", "properties": {"norad_id": 66860, "name": "STARLINK-35987", "group": "last-30-days", "lat": 38.235609100276506, "lon": 155.3101862863122, "alt_km": 409.8160213230385, "timestamp": "2025-12-27T12:55:13.196008+00:00", "meta": {"OBJECT_NAME": "STARLINK-35987", "OBJECT_ID": "2025-281N", "EPOCH": "2025-12-27T06:00:02.000160", "MEAN_MOTION": 15.50584639, "ECCENTRICITY": 0.00012968, "INCLINATION": 43.0001, "RA_OF_ASC_NODE": 34.7282, "ARG_OF_PERICENTER": 267.5093, "MEAN_ANOMALY": 35.8902, "EPHEMERIS_TYPE": 0, "CLASSIFICATION_TYPE": "U", "NORAD_CAT_ID": 66860, "ELEMENT_SET_NO": 999, "REV_AT_EPOCH": 372, "BSTAR": -0.00094726671, "MEAN_MOTION_DOT": -0.00055531, "MEAN_MOTION_DDOT": 0}, "tle": {"line1": "1 66860U 25281N   25361.25002315 -.00055531  00000+0 -94727-3 0  9991", "line2": "2 66860  43.0001  34.7282 0001296 267.5093  35.8902 15.50584639  3727"}}, "geometry": {"type": "Point", "coordinates": [155.3101862863122, 38.235609100276506]}}, {"type": "Feature", "properties": {"norad_id": 66861, "name": "STARLINK-35991", "group": "last-30-days", "lat": 40.12851401692777, "lon": 148.290711185995, "alt_km": 409.2583268432654, "timestamp": "2025-12-27T12:55:13.196018+00:00", "meta": {"OBJECT_NAME": "STARLINK-35991", "OBJECT_ID": "2025-281P", "EPOCH": "2025-12-27T06:00:02.000160", "MEAN_MOTION": 15.50513375, "ECCENTRICITY": 8.479e-05, "INCLINATION": 43.0001, "RA_OF_ASC_NODE": 34.7435, "ARG_OF_PERICENTER": 264.4541, "MEAN_ANOMALY": 33.2185, "EPHEMERIS_TYPE": 0, "CLASSIFICATION_TYPE": "U", "NORAD_CAT_ID": 66861, "ELEMENT_SET_NO": 999, "REV_AT_EPOCH": 371, "BSTAR": 0.001093003, "MEAN_MOTION_DOT": 0.00064156, "MEAN_MOTION_DDOT": 0}, "tle": {"line1": "1 66861U 25281P   25361.25002315  .00064156  00000+0  10930-2 0  9996", "line2": "2 66861  43.0001  34.7435 0000847 264.4541  33.2185 15.50513375  3716"}}, "geometry": {"type": "Point", "coordinates": [148.290711185995, 40.12851401692777]}}, {"type": "Feature", "properties": {"norad_id": 66862, "name": "STARLINK-35974", "group": "last-30-days", "lat": 40.658227118514645, "lon": 145.88827012640957, "alt_km": 409.21214049393257, "timestamp": "2025-12-27T12:55:13.196028+00:00", "meta": {"OBJECT_NAME": "STARLINK-35974", "OBJECT_ID": "2025-281Q", "EPOCH": "2025-12-27T06:00:02.000160", "MEAN_MOTION": 15.5062986, "ECCENTRICITY": 9.395e-05, "INCLINATION": 43.0002, "RA_OF_ASC_NODE": 34.7475, "ARG_OF_PERICENTER": 262.1595, "MEAN_ANOMALY": 33.5439, "EPHEMERIS_TYPE": 0, "CLASSIFICATION_TYPE": "U", "NORAD_CAT_ID": 66862, "ELEMENT_SET_NO": 999, "REV_AT_EPOCH": 361, "BSTAR": -0.0021237373, "MEAN_MOTION_DOT": -0.00123208, "MEAN_MOTION_DDOT": 0}, "tle": {"line1": "1 66862U 25281Q   25361.25002315 -.00123208  00000+0 -21237-2 0  9995", "line2": "2 66862  43.0002  34.7475 0000939 262.1595  33.5439 15.50629860  3619"}}, "geometry": {"type": "Point", "coordinates": [145.88827012640957, 40.658227118514645]}}, {"type": "Feature", "properties": {"norad_id": 66863, "name": "STARLINK-36134", "group": "last-30-days", "lat": 39.54524672086445, "lon": 150.67100420881692, "alt_km": 409.3525817186319, "timestamp": "2025-12-27T12:55:13.196038+00:00", "meta": {"OBJECT_NAME": "STARLINK-36134", "OBJECT_ID": "2025-281R", "EPOCH": "2025-12-27T06:00:02.000160", "MEAN_MOTION": 15.50506501, "ECCENTRICITY": 8.57e-05, "INCLINATION": 43, "RA_OF_ASC_NODE": 34.7387, "ARG_OF_PERICENTER": 271.4309, "MEAN_ANOMALY": 28.1605, "EPHEMERIS_TYPE": 0, "CLASSIFICATION_TYPE": "U", "NORAD_CAT_ID": 66863, "ELEMENT_SET_NO": 999, "REV_AT_EPOCH": 371, "BSTAR": 0.0014933331, "MEAN_MOTION_DOT": 0.00088027, "MEAN_MOTION_DDOT": 0}, "tle": {"line1": "1 66863U 25281R   25361.25002315  .00088027  00000+0  14933-2 0  9998", "line2": "2 66863  43.0000  34.7387 0000857 271.4309  28.1605 15.50506501  3717"}}, "geometry": {"type": "Point", "coordinates": [150.67100420881692, 39.54524672086445]}}, {"type": "Feature", "properties": {"norad_id": 66864, "name": "STARLINK-36070", "group": "last-30-days", "lat": 38.91587720794399, "lon": 153.00349153680324, "alt_km": 409.3396121080259, "timestamp": "2025-12-27T12:55:13.196048+00:00", "meta": {"OBJECT_NAME": "STARLINK-36070", "OBJECT_ID": "2025-281S", "EPOCH": "2025-12-27T06:00:02.000160", "MEAN_MOTION": 15.50730349, "ECCENTRICITY": 0.00010314, "INCLINATION": 43.0001, "RA_OF_ASC_NODE": 34.7335, "ARG_OF_PERICENTER": 250.7195, "MEAN_ANOMALY": 50.6566, "EPHEMERIS_TYPE": 0, "CLASSIFICATION_TYPE": "U", "NORAD_CAT_ID": 66864, "ELEMENT_SET_NO": 999, "REV_AT_EPOCH": 375, "BSTAR": -0.0040949421, "MEAN_MOTION_DOT": -0.00234765, "MEAN_MOTION_DDOT": 0}, "tle": {"line1": "1 66864U 25281S   25361.25002315 -.00234765  00000+0 -40949-2 0  9999", "line2": "2 66864  43.0001  34.7335 0001031 250.7195  50.6566 15.50730349  3759"}}, "geometry": {"type": "Point", "coordinates": [153.00349153680324, 38.91587720794399]}}, {"type": "Feature", "properties": {"norad_id": 66865, "name": "STARLINK-36117", "group": "last-30-days", "lat": 37.513290748803186, "lon": 157.5659020162201, "alt_km": 409.8698947225166, "timestamp": "2025-12-27T12:55:13.196058+00:00", "meta": {"OBJECT_NAME": "STARLINK-36117", "OBJECT_ID": "2025-281T", "EPOCH": "2025-12-27T06:00:02.000160", "MEAN_MOTION": 15.50514015, "ECCENTRICITY": 0.00011599, "INCLINATION": 43.0001, "RA_OF_ASC_NODE": 34.7236, "ARG_OF_PERICENTER": 267.5896, "MEAN_ANOMALY": 37.7759, "EPHEMERIS_TYPE": 0, "CLASSIFICATION_TYPE": "U", "NORAD_CAT_ID": 66865, "ELEMENT_SET_NO": 999, "REV_AT_EPOCH": 372, "BSTAR": 0.00073625748, "MEAN_MOTION_DOT": 0.00042988, "MEAN_MOTION_DDOT": 0}, "tle": {"line1": "1 66865U 25281T   25361.25002315  .00042988  00000+0  73626-3 0  9991", "line2": "2 66865  43.0001  34.7236 0001159 267.5896  37.7759 15.50514015  3722"}}, "geometry": {"type": "Point", "coordinates": [157.5659020162201, 37.513290748803186]}}, {"type": "Feature", "properties": {"norad_id": 66866, "name": "STARLINK-36126", "group": "last-30-days", "lat": 36.757457702859966, "lon": 159.75210349914062, "alt_km": 409.6112497329859, "timestamp": "2025-12-27T12:55:13.196068+00:00", "meta": {"OBJECT_NAME": "STARLINK-36126", "OBJECT_ID": "2025-281U", "EPOCH": "2025-12-27T06:00:02.000160", "MEAN_MOTION": 15.50715047, "ECCENTRICITY": 0.00010355, "INCLINATION": 43, "RA_OF_ASC_NODE": 34.7191, "ARG_OF_PERICENTER": 246.7356, "MEAN_ANOMALY": 60.4044, "EPHEMERIS_TYPE": 0, "CLASSIFICATION_TYPE": "U", "NORAD_CAT_ID": 66866, "ELEMENT_SET_NO": 999, "REV_AT_EPOCH": 375, "BSTAR": -0.0038129011, "MEAN_MOTION_DOT": -0.00218937, "MEAN_MOTION_DDOT": 0}, "tle": {"line1": "1 66866U 25281U   25361.25002315 -.00218937  00000+0 -38129-2 0  9991", "line2": "2 66866  43.0000  34.7191 0001035 246.7356  60.4044 15.50715047  3756"}}, "geometry": {"type": "Point", "coordinates": [159.75210349914062, 36.757457702859966]}}, {"type": "Feature", "properties": {"norad_id": 66867, "name": "STARLINK-36101", "group": "last-30-days", "lat": 35.95122121280885, "lon": 161.9231187241161, "alt_km": 409.7192235658158, "timestamp": "2025-12-27T12:55:13.196080+00:00", "meta": {"OBJECT_NAME": "STARLINK-36101", "OBJECT_ID": "2025-281V", "EPOCH": "2025-12-27T06:00:02.000160", "MEAN_MOTION": 15.5058921, "ECCENTRICITY": 9.452e-05, "INCLINATION": 43, "RA_OF_ASC_NODE": 34.7137, "ARG_OF_PERICENTER": 239.979, "MEAN_ANOMALY": 69.1719, "EPHEMERIS_TYPE": 0, "CLASSIFICATION_TYPE": "U", "NORAD_CAT_ID": 66867, "ELEMENT_SET_NO": 999, "REV_AT_EPOCH": 355, "BSTAR": -0.0011480221, "MEAN_MOTION_DOT": -0.00067137, "MEAN_MOTION_DDOT": 0}, "tle": {"line1": "1 66867U 25281V   25361.25002315 -.00067137  00000+0 -11480-2 0  9997", "line2": "2 66867  43.0000  34.7137 0000945 239.9790  69.1719 15.50589210  3556"}}, "geometry": {"type": "Point", "coordinates": [161.9231187241161, 35.95122121280885]}}, {"type": "Feature", "properties": {"norad_id": 66868, "name": "STARLINK-36108", "group": "last-30-days", "lat": 35.11016859246975, "lon": 164.04018029471186, "alt_km": 410.09310480141176, "timestamp": "2025-12-27T12:55:13.196090+00:00", "meta": {"OBJECT_NAME": "STARLINK-36108", "OBJECT_ID": "2025-281W", "EPOCH": "2025-12-27T06:00:02.000160", "MEAN_MOTION": 15.5059305, "ECCENTRICITY": 0.00010175, "INCLINATION": 43, "RA_OF_ASC_NODE": 34.7085, "ARG_OF_PERICENTER": 266.3541, "MEAN_ANOMALY": 44.7103, "EPHEMERIS_TYPE": 0, "CLASSIFICATION_TYPE": "U", "NORAD_CAT_ID": 66868, "ELEMENT_SET_NO": 999, "REV_AT_EPOCH": 355, "BSTAR": -0.0012425261, "MEAN_MOTION_DOT": -0.00072596, "MEAN_MOTION_DDOT": 0}, "tle": {"line1": "1 66868U 25281W   25361.25002315 -.00072596  00000+0 -12425-2 0  9993", "line2": "2 66868  43.0000  34.7085 0001017 266.3541  44.7103 15.50593050  3551"}}, "geometry": {"type": "Point", "coordinates": [164.04018029471186, 35.11016859246975]}}, {"type": "Feature", "properties": {"norad_id": 66869, "name": "STARLINK-36092", "group": "last-30-days", "lat": 34.25098145952047, "lon": 166.0733061891979, "alt_km": 409.9767007236269, "timestamp": "2025-12-27T12:55:13.196102+00:00", "meta": {"OBJECT_NAME": "STARLINK-36092", "OBJECT_ID": "2025-281X", "EPOCH": "2025-12-27T06:00:02.000160", "MEAN_MOTION": 15.50705155, "ECCENTRICITY": 0.00011263, "INCLINATION": 43.0001, "RA_OF_ASC_NODE": 34.7052, "ARG_OF_PERICENTER": 248.7249, "MEAN_ANOMALY": 64.1408, "EPHEMERIS_TYPE": 0, "CLASSIFICATION_TYPE": "U", "NORAD_CAT_ID": 66869, "ELEMENT_SET_NO": 999, "REV_AT_EPOCH": 375, "BSTAR": -0.0031764181, "MEAN_MOTION_DOT": -0.0018321, "MEAN_MOTION_DDOT": 0}, "tle": {"line1": "1 66869U 25281X   25361.25002315 -.00183210  00000+0 -31764-2 0  9997", "line2": "2 66869  43.0001  34.7052 0001126 248.7249  64.1408 15.50705155  3754"}}, "geometry": {"type": "Point", "coordinates": [166.0733061891979, 34.25098145952047]}}]}